CCSDS_OMM_VERS = 2.0
CREATION_DATE  = 
ORIGINATOR     = 

OBJECT_NAME    = SHIJIAN-16 (SJ-16)
OBJECT_ID      = 2013-057A
CENTER_NAME    = EARTH
REF_FRAME      = TEME
TIME_SYSTEM    = UTC
MEAN_ELEMENT_THEORY = SGP/SGP4

EPOCH          = 2025-11-29T20:40:44.913216
MEAN_MOTION    = 14.91933102
ECCENTRICITY   = .0017212
INCLINATION    = 74.9742
RA_OF_ASC_NODE = 14.0208
ARG_OF_PERICENTER = 350.2737
MEAN_ANOMALY   = 9.8115

EPHEMERIS_TYPE = 0
CLASSIFICATION_TYPE = U
NORAD_CAT_ID   = 39358
ELEMENT_SET_NO = 999
REV_AT_EPOCH   = 65661
BSTAR          = .19405E-3
MEAN_MOTION_DOT = .194E-4
MEAN_MOTION_DDOT = 0

CCSDS_OMM_VERS = 2.0
CREATION_DATE  = 
ORIGINATOR     = 

OBJECT_NAME    = SL-4 R/B
OBJECT_ID      = 2014-021B
CENTER_NAME    = EARTH
REF_FRAME      = TEME
TIME_SYSTEM    = UTC
MEAN_ELEMENT_THEORY = SGP/SGP4

EPOCH          = 2025-11-29T16:07:58.068768
MEAN_MOTION    = 15.36170573
ECCENTRICITY   = .0102946
INCLINATION    = 51.6066
RA_OF_ASC_NODE = 104.0782
ARG_OF_PERICENTER = 99.2136
MEAN_ANOMALY   = 262.0508

EPHEMERIS_TYPE = 0
CLASSIFICATION_TYPE = U
NORAD_CAT_ID   = 39679
ELEMENT_SET_NO = 999
REV_AT_EPOCH   = 64088
BSTAR          = .31293E-3
MEAN_MOTION_DOT = .12947E-3
MEAN_MOTION_DDOT = 0

CCSDS_OMM_VERS = 2.0
CREATION_DATE  = 
ORIGINATOR     = 

OBJECT_NAME    = ALOS-2
OBJECT_ID      = 2014-029A
CENTER_NAME    = EARTH
REF_FRAME      = TEME
TIME_SYSTEM    = UTC
MEAN_ELEMENT_THEORY = SGP/SGP4

EPOCH          = 2025-11-29T19:48:10.972800
MEAN_MOTION    = 14.79494323
ECCENTRICITY   = .0001368
INCLINATION    = 97.9230
RA_OF_ASC_NODE = 68.8548
ARG_OF_PERICENTER = 99.7566
MEAN_ANOMALY   = 260.3800

EPHEMERIS_TYPE = 0
CLASSIFICATION_TYPE = U
NORAD_CAT_ID   = 39766
ELEMENT_SET_NO = 999
REV_AT_EPOCH   = 62210
BSTAR          = .26177E-3
MEAN_MOTION_DOT = .1905E-4
MEAN_MOTION_DDOT = 0

CCSDS_OMM_VERS = 2.0
CREATION_DATE  = 
ORIGINATOR     = 

OBJECT_NAME    = YAOGAN-29
OBJECT_ID      = 2015-069A
CENTER_NAME    = EARTH
REF_FRAME      = TEME
TIME_SYSTEM    = UTC
MEAN_ELEMENT_THEORY = SGP/SGP4

EPOCH          = 2025-11-29T20:43:59.175840
MEAN_MOTION    = 14.82859429
ECCENTRICITY   = .0001027
INCLINATION    = 98.0231
RA_OF_ASC_NODE = 356.9936
ARG_OF_PERICENTER = 15.5560
MEAN_ANOMALY   = 344.5685

EPHEMERIS_TYPE = 0
CLASSIFICATION_TYPE = U
NORAD_CAT_ID   = 41038
ELEMENT_SET_NO = 999
REV_AT_EPOCH   = 54108
BSTAR          = .66634E-4
MEAN_MOTION_DOT = .485E-5
MEAN_MOTION_DDOT = 0

CCSDS_OMM_VERS = 2.0
CREATION_DATE  = 
ORIGINATOR     = 

OBJECT_NAME    = ASTRO-H (HITOMI)
OBJECT_ID      = 2016-012A
CENTER_NAME    = EARTH
REF_FRAME      = TEME
TIME_SYSTEM    = UTC
MEAN_ELEMENT_THEORY = SGP/SGP4

EPOCH          = 2025-11-29T04:46:16.756320
MEAN_MOTION    = 15.09220495
ECCENTRICITY   = .00095531
INCLINATION    = 31.0000
RA_OF_ASC_NODE = 284.6593
ARG_OF_PERICENTER = 40.9552
MEAN_ANOMALY   = 319.1803

EPHEMERIS_TYPE = 0
CLASSIFICATION_TYPE = U
NORAD_CAT_ID   = 41337
ELEMENT_SET_NO = 999
REV_AT_EPOCH   = 53703
BSTAR          = .21782379E-3
MEAN_MOTION_DOT = .3646E-4
MEAN_MOTION_DDOT = 0

CCSDS_OMM_VERS = 2.0
CREATION_DATE  = 
ORIGINATOR     = 

OBJECT_NAME    = HXMT (HUIYAN)
OBJECT_ID      = 2017-034A
CENTER_NAME    = EARTH
REF_FRAME      = TEME
TIME_SYSTEM    = UTC
MEAN_ELEMENT_THEORY = SGP/SGP4

EPOCH          = 2025-11-29T21:04:53.631264
MEAN_MOTION    = 15.16079496
ECCENTRICITY   = .0033411
INCLINATION    = 43.0135
RA_OF_ASC_NODE = 210.9918
ARG_OF_PERICENTER = 321.8871
MEAN_ANOMALY   = 37.9614

EPHEMERIS_TYPE = 0
CLASSIFICATION_TYPE = U
NORAD_CAT_ID   = 42758
ELEMENT_SET_NO = 999
REV_AT_EPOCH   = 46738
BSTAR          = .26861E-3
MEAN_MOTION_DOT = .51E-4
MEAN_MOTION_DDOT = 0

CCSDS_OMM_VERS = 2.0
CREATION_DATE  = 
ORIGINATOR     = 

OBJECT_NAME    = CZ-2C R/B
OBJECT_ID      = 2018-054D
CENTER_NAME    = EARTH
REF_FRAME      = TEME
TIME_SYSTEM    = UTC
MEAN_ELEMENT_THEORY = SGP/SGP4

EPOCH          = 2025-11-29T20:19:49.491840
MEAN_MOTION    = 15.70979885
ECCENTRICITY   = .0018999
INCLINATION    = 35.1343
RA_OF_ASC_NODE = 268.1234
ARG_OF_PERICENTER = 9.1533
MEAN_ANOMALY   = 350.9542

EPHEMERIS_TYPE = 0
CLASSIFICATION_TYPE = U
NORAD_CAT_ID   = 43521
ELEMENT_SET_NO = 999
REV_AT_EPOCH   = 41302
BSTAR          = .6517E-3
MEAN_MOTION_DOT = .86399E-3
MEAN_MOTION_DDOT = 0

CCSDS_OMM_VERS = 2.0
CREATION_DATE  = 
ORIGINATOR     = 

OBJECT_NAME    = SAOCOM 1A
OBJECT_ID      = 2018-076A
CENTER_NAME    = EARTH
REF_FRAME      = TEME
TIME_SYSTEM    = UTC
MEAN_ELEMENT_THEORY = SGP/SGP4

EPOCH          = 2025-11-29T20:16:39.802368
MEAN_MOTION    = 14.82154399
ECCENTRICITY   = .0001573
INCLINATION    = 97.8848
RA_OF_ASC_NODE = 158.4546
ARG_OF_PERICENTER = 87.9017
MEAN_ANOMALY   = 272.2377

EPHEMERIS_TYPE = 0
CLASSIFICATION_TYPE = U
NORAD_CAT_ID   = 43641
ELEMENT_SET_NO = 999
REV_AT_EPOCH   = 38657
BSTAR          = .71028E-4
MEAN_MOTION_DOT = .513E-5
MEAN_MOTION_DDOT = 0

CCSDS_OMM_VERS = 2.0
CREATION_DATE  = 
ORIGINATOR     = 

OBJECT_NAME    = H-2A R/B
OBJECT_ID      = 2018-084L
CENTER_NAME    = EARTH
REF_FRAME      = TEME
TIME_SYSTEM    = UTC
MEAN_ELEMENT_THEORY = SGP/SGP4

EPOCH          = 2025-11-29T19:15:31.027680
MEAN_MOTION    = 15.36693226
ECCENTRICITY   = .0028364
INCLINATION    = 98.8789
RA_OF_ASC_NODE = 165.2068
ARG_OF_PERICENTER = 10.7512
MEAN_ANOMALY   = 349.4328

EPHEMERIS_TYPE = 0
CLASSIFICATION_TYPE = U
NORAD_CAT_ID   = 43682
ELEMENT_SET_NO = 999
REV_AT_EPOCH   = 39041
BSTAR          = .50505E-3
MEAN_MOTION_DOT = .18259E-3
MEAN_MOTION_DDOT = 0

CCSDS_OMM_VERS = 2.0
CREATION_DATE  = 
ORIGINATOR     = 

OBJECT_NAME    = SAOCOM 1B
OBJECT_ID      = 2020-059A
CENTER_NAME    = EARTH
REF_FRAME      = TEME
TIME_SYSTEM    = UTC
MEAN_ELEMENT_THEORY = SGP/SGP4

EPOCH          = 2025-11-29T19:24:25.496352
MEAN_MOTION    = 14.82163185
ECCENTRICITY   = .0001362
INCLINATION    = 97.8844
RA_OF_ASC_NODE = 157.5202
ARG_OF_PERICENTER = 91.0411
MEAN_ANOMALY   = 269.0958

EPHEMERIS_TYPE = 0
CLASSIFICATION_TYPE = U
NORAD_CAT_ID   = 46265
ELEMENT_SET_NO = 999
REV_AT_EPOCH   = 28395
BSTAR          = .70803E-4
MEAN_MOTION_DOT = .512E-5
MEAN_MOTION_DDOT = 0

CCSDS_OMM_VERS = 2.0
CREATION_DATE  = 
ORIGINATOR     = 

OBJECT_NAME    = CSS (TIANHE)
OBJECT_ID      = 2021-035A
CENTER_NAME    = EARTH
REF_FRAME      = TEME
TIME_SYSTEM    = UTC
MEAN_ELEMENT_THEORY = SGP/SGP4

EPOCH          = 2025-11-29T13:55:39.063072
MEAN_MOTION    = 15.58397325
ECCENTRICITY   = .0010593
INCLINATION    = 41.4664
RA_OF_ASC_NODE = 96.5478
ARG_OF_PERICENTER = 293.9790
MEAN_ANOMALY   = 65.9939

EPHEMERIS_TYPE = 0
CLASSIFICATION_TYPE = U
NORAD_CAT_ID   = 48274
ELEMENT_SET_NO = 999
REV_AT_EPOCH   = 26197
BSTAR          = .18629E-3
MEAN_MOTION_DOT = .14306E-3
MEAN_MOTION_DDOT = 0

CCSDS_OMM_VERS = 2.0
CREATION_DATE  = 
ORIGINATOR     = 

OBJECT_NAME    = COSMOS 2550
OBJECT_ID      = 2021-056A
CENTER_NAME    = EARTH
REF_FRAME      = TEME
TIME_SYSTEM    = UTC
MEAN_ELEMENT_THEORY = SGP/SGP4

EPOCH          = 2025-11-29T19:33:31.970304
MEAN_MOTION    = 15.33825458
ECCENTRICITY   = .0008394
INCLINATION    = 67.1430
RA_OF_ASC_NODE = 343.0291
ARG_OF_PERICENTER = 269.4513
MEAN_ANOMALY   = 90.5680

EPHEMERIS_TYPE = 0
CLASSIFICATION_TYPE = U
NORAD_CAT_ID   = 48865
ELEMENT_SET_NO = 999
REV_AT_EPOCH   = 24814
BSTAR          = .14678E-5
MEAN_MOTION_DOT = -.143E-5
MEAN_MOTION_DDOT = 0

