SHIJIAN-16 (SJ-16)      
1 39358U 13057A   25333.86163094  .00001940  00000+0  19405-3 0  9992
2 39358  74.9742  14.0208 0017212 350.2737   9.8115 14.91933102656619
SL-4 R/B                
1 39679U 14021B   25333.67219987  .00012947  00000+0  31293-3 0  9990
2 39679  51.6066 104.0782 0102946  99.2136 262.0508 15.36170573640881
ALOS-2                  
1 39766U 14029A   25333.82512700  .00001905  00000+0  26177-3 0  9998
2 39766  97.9230  68.8548 0001368  99.7566 260.3800 14.79494323622108
YAOGAN-29               
1 41038U 15069A   25333.86387935  .00000485  00000+0  66634-4 0  9997
2 41038  98.0231 356.9936 0001027  15.5560 344.5685 14.82859429541089
ASTRO-H (HITOMI)        
1 41337U 16012A   25333.19880505  .00003646  00000+0  21782-3 0  9991
2 41337  31.0000 284.6593 0009553  40.9552 319.1803 15.09220495537038
HXMT (HUIYAN)           
1 42758U 17034A   25333.87839851  .00005100  00000+0  26861-3 0  9997
2 42758  43.0135 210.9918 0033411 321.8871  37.9614 15.16079496467382
CZ-2C R/B               
1 43521U 18054D   25333.84710060  .00086399  00000+0  65170-3 0  9991
2 43521  35.1343 268.1234 0018999   9.1533 350.9542 15.70979885413026
SAOCOM 1A               
1 43641U 18076A   25333.84490512  .00000513  00000+0  71028-4 0  9999
2 43641  97.8848 158.4546 0001573  87.9017 272.2377 14.82154399386570
H-2A R/B                
1 43682U 18084L   25333.80244245  .00018259  00000+0  50505-3 0  9991
2 43682  98.8789 165.2068 0028364  10.7512 349.4328 15.36693226390414
SAOCOM 1B               
1 46265U 20059A   25333.80862843  .00000512  00000+0  70803-4 0  9993
2 46265  97.8844 157.5202 0001362  91.0411 269.0958 14.82163185283950
CSS (TIANHE)            
1 48274U 21035A   25333.58031323  .00014306  00000+0  18629-3 0  9999
2 48274  41.4664  96.5478 0010593 293.9790  65.9939 15.58397325261972
COSMOS 2550             
1 48865U 21056A   25333.81495336 -.00000143  00000+0  14678-5 0  9999
2 48865  67.1430 343.0291 0008394 269.4513  90.5680 15.33825458248141
